NORAD_CAT_ID,OBJECT_NAME,OBJECT_TYPE,EPOCH,MEAN_MOTION,ECCENTRICITY,INCLINATION,RA_OF_ASC_NODE,ARG_OF_PERICENTER,MEAN_ANOMALY,BSTAR,MEAN_MOTION_DOT,MEAN_MOTION_DDOT,TLE_LINE0,TLE_LINE1,TLE_LINE2,SEMIMAJOR_AXIS,PERIOD,APOGEE,PERIGEE,DECAYED
52373.0,STARLINK-3550,PAYLOAD,2023-10-30 18:14:47,15.08849219,0.0001336,53.2178,93.9815,90.0651,270.0494,-0.00018624,-3.251e-05,0.0,0 STARLINK-3550,1 52373U 22045AU  23303.76027211 -.00003251  00000-0 -18624-3 0  9997,2 52373  53.2178  93.9815 0001336  90.0651 270.0494 15.08849219 85957,6917.852,95.437,540.641,538.793,0.0
52373.0,STARLINK-3550,PAYLOAD,2023-10-31 14:54:48,15.08841052,0.0001301,53.217,90.1161,86.4136,273.7005,8.8978e-06,-1.46e-06,0.0,0 STARLINK-3550,1 52373U 22045AU  23304.62139471 -.00000146  00000-0  88978-5 0  9995,2 52373  53.2170  90.1161 0001301  86.4136 273.7005 15.08841052 86081,6917.877,95.437,540.642,538.842,0.0
52373.0,STARLINK-3550,PAYLOAD,2023-10-31 16:30:11,15.08839977,0.0001267,53.2175,89.8193,81.9542,278.1594,6.4579e-05,7.4e-06,0.0,0 STARLINK-3550,1 52373U 22045AU  23304.68763396  .00000740  00000-0  64579-4 0  9999,2 52373  53.2175  89.8193 0001267  81.9542 278.1594 15.08839977 86094,6917.88,95.438,540.622,538.869,0.0
52373.0,STARLINK-3550,PAYLOAD,2023-11-01 14:45:35,15.08832928,0.0001334,53.218,85.657,84.5405,275.5739,0.00021294,3.102e-05,0.0,0 STARLINK-3550,1 52373U 22045AU  23305.61499661  .00003102  00000-0  21294-3 0  9995,2 52373  53.2180  85.6570 0001334  84.5405 275.5739 15.08832928 86232,6917.902,95.438,540.69,538.844,0.0
52373.0,STARLINK-3550,PAYLOAD,2023-11-01 16:20:58,15.08832653,0.0001296,53.2182,85.358,92.3097,267.8044,0.00029893,4.472e-05,0.0,0 STARLINK-3550,1 52373U 22045AU  23305.68123553  .00004472  00000-0  29893-3 0  9990,2 52373  53.2182  85.3580 0001296  92.3097 267.8044 15.08832653 86242,6917.903,95.438,540.664,538.871,0.0
52373.0,STARLINK-3550,PAYLOAD,2023-11-02 01:53:17,15.0884559,0.0001138,53.2184,83.575,90.2013,269.9109,-6.4775e-05,-1.319e-05,0.0,0 STARLINK-3550,1 52373U 22045AU  23306.07867422 -.00001319  00000-0 -64775-4 0  9992,2 52373  53.2184  83.5750 0001138  90.2013 269.9109 15.08845590 86309,6917.863,95.437,540.516,538.941,0.0
52373.0,STARLINK-3550,PAYLOAD,2023-11-02 14:36:22,15.088393,0.0001453,53.2194,81.196,95.0693,265.0465,7.2309e-05,8.63e-06,0.0,0 STARLINK-3550,1 52373U 22045AU  23306.60859759  .00000863  00000-0  72309-4 0  9998,2 52373  53.2194  81.1960 0001453  95.0693 265.0465 15.08839300 86386,6917.883,95.438,540.753,538.742,0.0
52373.0,STARLINK-3550,PAYLOAD,2023-11-02 16:11:45,15.08842299,0.0001406,53.2195,80.8993,94.2538,265.8615,8.7772e-05,1.109e-05,0.0,0 STARLINK-3550,1 52373U 22045AU  23306.67483533  .00001109  00000-0  87772-4 0  9992,2 52373  53.2195  80.8993 0001406  94.2538 265.8615 15.08842299 86393,6917.873,95.437,540.711,538.766,0.0
52373.0,STARLINK-3550,PAYLOAD,2023-11-03 14:27:10,15.08837239,0.0001357,53.2194,76.7352,86.5131,273.6016,2.5708e-06,-2.47e-06,0.0,0 STARLINK-3550,1 52373U 22045AU  23307.60220172 -.00000247  00000-0  25708-5 0  9999,2 52373  53.2194  76.7352 0001357  86.5131 273.6016 15.08837239 86539,6917.889,95.438,540.693,538.815,0.0
52373.0,STARLINK-3550,PAYLOAD,2023-11-03 16:02:33,15.08838979,0.000141,53.2196,76.44,97.4317,262.6836,1.2578e-05,-8.8e-07,0.0,0 STARLINK-3550,1 52373U 22045AU  23307.66844037 -.00000088  00000-0  12578-4 0  9990,2 52373  53.2196  76.4400 0001410  97.4317 262.6836 15.08838979 86540,6917.884,95.438,540.724,538.773,0.0
52373.0,STARLINK-3550,PAYLOAD,2023-11-04 14:17:57,15.08835435,9.46e-05,53.2178,72.2751,63.3262,296.7827,6.6587e-05,7.72e-06,0.0,0 STARLINK-3550,1 52373U 22045AU  23308.59580392  .00000772  00000-0  66587-4 0  9992,2 52373  53.2178  72.2751 0000946  63.3262 296.7827 15.08835435 86684,6917.894,95.438,540.414,539.105,0.0
52373.0,STARLINK-3550,PAYLOAD,2023-11-04 15:53:20,15.08842712,0.0001346,53.2183,71.9759,79.9331,280.1813,5.9604e-05,6.61e-06,0.0,0 STARLINK-3550,1 52373U 22045AU  23308.66204000  .00000661  00000-0  59604-4 0  9998,2 52373  53.2183  71.9759 0001346  79.9331 280.1813 15.08842712 86698,6917.872,95.437,540.668,538.806,0.0
52373.0,STARLINK-3550,PAYLOAD,2023-11-05 01:25:38,15.08842326,0.000126,53.2184,70.1914,87.6025,272.5112,5.3754e-05,5.68e-06,0.0,0 STARLINK-3550,1 52373U 22045AU  23309.05947898  .00000568  00000-0  53754-4 0  9997,2 52373  53.2184  70.1914 0001260  87.6025 272.5112 15.08842326 86759,6917.873,95.437,540.61,538.867,0.0
52373.0,STARLINK-3550,PAYLOAD,2023-11-05 14:08:43,15.08852035,0.0001441,53.2184,67.8144,94.4706,265.6451,0.00016324,2.312e-05,0.0,0 STARLINK-3550,1 52373U 22045AU  23309.58939006  .00002312  00000-0  16324-3 0  9997,2 52373  53.2184  67.8144 0001441  94.4706 265.6451 15.08852035 86836,6917.844,95.437,540.705,538.712,0.0
52373.0,STARLINK-3550,PAYLOAD,2023-11-05 15:44:05,15.08859231,0.0001312,53.2189,67.5164,86.3864,273.7278,0.00021445,3.128e-05,0.0,0 STARLINK-3550,1 52373U 22045AU  23309.65562370  .00003128  00000-0  21445-3 0  9997,2 52373  53.2189  67.5164 0001312  86.3864 273.7278 15.08859231 86845,6917.822,95.436,540.594,538.779,0.0
52373.0,STARLINK-3550,PAYLOAD,2023-11-06 01:16:25,15.0885344,0.0001579,53.2189,65.7326,72.8389,287.2776,0.00017537,2.505e-05,0.0,0 STARLINK-3550,1 52373U 22045AU  23310.05306752  .00002505  00000-0  17537-3 0  9998,2 52373  53.2189  65.7326 0001579  72.8389 287.2776 15.08853440 86908,6917.839,95.437,540.797,538.612,0.0
52373.0,STARLINK-3550,PAYLOAD,2023-11-06 13:59:31,15.08833735,0.0001648,53.2202,63.3529,65.5328,294.5836,-7.2374e-05,-1.439e-05,0.0,0 STARLINK-3550,1 52373U 22045AU  23310.58300792 -.00001439  00000-0 -72374-4 0  9992,2 52373  53.2202  63.3529 0001648  65.5328 294.5836 15.08833735 86983,6917.9,95.438,540.905,538.624,0.0
52373.0,STARLINK-3550,PAYLOAD,2023-11-07 10:39:32,15.08839387,0.0001388,53.2201,59.4889,75.7868,284.3278,1.6621e-05,-2.3e-07,0.0,0 STARLINK-3550,1 52373U 22045AU  23311.44412469 -.00000023  00000-0  16621-4 0  9993,2 52373  53.2201  59.4889 0001388  75.7868 284.3278 15.08839387 87112,6917.882,95.438,540.707,538.787,0.0
52373.0,STARLINK-3550,PAYLOAD,2023-11-07 13:50:18,15.08846853,0.0001329,53.2191,58.8941,68.7909,291.3225,-3.2162e-05,-8e-06,0.0,0 STARLINK-3550,1 52373U 22045AU  23311.57660106 -.00000800  00000-0 -32162-4 0  9992,2 52373  53.2191  58.8941 0001329  68.7909 291.3225 15.08846853 87133,6917.859,95.437,540.644,538.805,0.0
52373.0,STARLINK-3550,PAYLOAD,2023-11-08 12:05:43,15.0881983,0.0001571,53.2197,54.7302,60.0597,300.0551,4.9226e-05,4.95e-06,0.0,0 STARLINK-3550,1 52373U 22045AU  23312.50397888  .00000495  00000-0  49226-4 0  9997,2 52373  53.2197  54.7302 0001571  60.0597 300.0551 15.08819830 87272,6917.942,95.439,540.894,538.72,0.0
52373.0,STARLINK-3550,PAYLOAD,2023-11-09 11:56:29,15.08843363,0.0001574,53.2195,50.2744,58.7925,301.3221,0.00015889,2.242e-05,0.0,0 STARLINK-3550,1 52373U 22045AU  23313.49756726  .00002242  00000-0  15889-3 0  9995,2 52373  53.2195  50.2744 0001574  58.7925 301.3221 15.08843363 87426,6917.87,95.437,540.824,538.646,0.0
52373.0,STARLINK-3550,PAYLOAD,2023-11-09 13:31:52,15.0884861,0.0001355,53.2201,49.9746,68.3893,291.7243,0.00016007,2.261e-05,0.0,0 STARLINK-3550,1 52373U 22045AU  23313.56380634  .00002261  00000-0  16007-3 0  9998,2 52373  53.2201  49.9746 0001355  68.3893 291.7243 15.08848610 87436,6917.854,95.437,540.656,538.782,0.0
52373.0,STARLINK-3550,PAYLOAD,2023-11-10 13:22:39,15.08858995,0.0001591,53.2195,45.5116,68.6316,291.4846,6.4285e-05,7.36e-06,0.0,0 STARLINK-3550,1 52373U 22045AU  23314.55739868  .00000736  00000-0  64285-4 0  9992,2 52373  53.2195  45.5116 0001591  68.6316 291.4846 15.08858995 87585,6917.822,95.436,540.788,538.587,0.0
52373.0,STARLINK-3550,PAYLOAD,2023-11-10 22:54:59,15.08838854,0.0001314,53.2181,43.7305,68.5711,291.5422,4.7074e-05,4.61e-06,0.0,0 STARLINK-3550,1 52373U 22045AU  23314.95485177  .00000461  00000-0  47074-4 0  9999,2 52373  53.2181  43.7305 0001314  68.5711 291.5422 15.08838854 87641,6917.884,95.438,540.658,538.84,0.0
52373.0,STARLINK-3550,PAYLOAD,2023-11-11 13:13:27,15.08844679,0.0001426,53.2195,41.0568,87.0149,273.1007,-1.7394e-05,-5.65e-06,0.0,0 STARLINK-3550,1 52373U 22045AU  23315.55101053 -.00000565  00000-0 -17394-4 0  9993,2 52373  53.2195  41.0568 0001426  87.0149 273.1007 15.08844679 87730,6917.866,95.437,540.718,538.745,0.0
52373.0,STARLINK-3550,PAYLOAD,2023-11-12 11:28:51,15.08838462,0.0001508,53.2209,36.8912,72.1966,287.9191,1.4207e-05,-6.2e-07,0.0,0 STARLINK-3550,1 52373U 22045AU  23316.47837461 -.00000062  00000-0  14207-4 0  9995,2 52373  53.2209  36.8912 0001508  72.1966 287.9191 15.08838462 87879,6917.885,95.438,540.793,538.707,0.0
52373.0,STARLINK-3550,PAYLOAD,2023-11-12 13:04:14,15.0884037,0.0001436,53.2195,36.5931,78.211,281.9044,4.0618e-05,3.59e-06,0.0,0 STARLINK-3550,1 52373U 22045AU  23316.54461236  .00000359  00000-0  40618-4 0  9999,2 52373  53.2195  36.5931 0001436  78.2110 281.9044 15.08840370 87882,6917.879,95.438,540.738,538.751,0.0
52373.0,STARLINK-3550,PAYLOAD,2023-11-12 22:36:32,15.08846409,0.0001489,53.2192,34.8083,82.1818,277.9343,3.6268e-06,-2.3e-06,0.0,0 STARLINK-3550,1 52373U 22045AU  23316.94204854 -.00000230  00000-0  36268-5 0  9990,2 52373  53.2192  34.8083 0001489  82.1818 277.9343 15.08846409 87948,6917.861,95.437,540.756,538.696,0.0
52373.0,STARLINK-3550,PAYLOAD,2023-11-13 12:55:00,15.08851001,0.0001398,53.2191,32.1313,86.4699,273.6453,0.00012693,1.733e-05,0.0,0 STARLINK-3550,1 52373U 22045AU  23317.53820153  .00001733  00000-0  12693-3 0  9994,2 52373  53.2191  32.1313 0001398  86.4699 273.6453 15.08851001 88037,6917.847,95.437,540.679,538.745,0.0
52373.0,STARLINK-3550,PAYLOAD,2023-11-14 00:02:43,15.08839276,0.000137,53.2206,30.0522,102.9675,257.147,5.6433e-05,6.1e-06,0.0,0 STARLINK-3550,1 52373U 22045AU  23318.00188973  .00000610  00000-0  56433-4 0  9998,2 52373  53.2206  30.0522 0001370 102.9675 257.1470 15.08839276 88105,6917.883,95.438,540.695,538.8,0.0
